{"fetched_at":"2026-03-30T06:02:59Z","count":15439,"tles":[{"name":"STARLINK-5852","line1":"1 55933U 23037V   26087.82179583 -.00015640  00000+0 -13038-2 0  9990","line2":"2 55933  69.9995 236.3118 0002801 266.6372  93.4466 14.98393610166842","category":"Starlink"}]}