{
  "norad_id": 55933,
  "name": "STARLINK-5852",
  "history": [
    {
      "epoch": "2026-03-28T19:43:23.159712Z",
      "apogee_km": 573.8062306579877,
      "perigee_km": 569.9121477931649,
      "latitude_deg": -5.640821630766782e-05,
      "longitude_deg": 114.22854595326667,
      "height_km": 574.4007058561389,
      "semi_major_axis_km": 6949.996189225576,
      "eccentricity": 0.00028015,
      "inclination_deg": 69.9995,
      "raan_deg": 236.3118,
      "arg_perigee_deg": 266.6372,
      "mean_anomaly_deg": 93.4466,
      "mean_motion_rev_day": 14.9839361
    }
  ]
}